[{"OBJECT_NAME":"YAOGAN-30 03C","OBJECT_ID":"2017-075C","EPOCH":"2026-03-09T16:55:34.578048","MEAN_MOTION":15.02171938,"ECCENTRICITY":0.00026669,"INCLINATION":34.9942,"RA_OF_ASC_NODE":156.283,"ARG_OF_PERICENTER":259.4663,"MEAN_ANOMALY":100.5744,"EPHEMERIS_TYPE":0,"CLASSIFICATION_TYPE":"U","NORAD_CAT_ID":43030,"ELEMENT_SET_NO":999,"REV_AT_EPOCH":45245,"BSTAR":0.00030362499,"MEAN_MOTION_DOT":4.051e-5,"MEAN_MOTION_DDOT":0},{"OBJECT_NAME":"STARLINK-34753","OBJECT_ID":"2025-158Q","EPOCH":"2026-03-09T12:46:56.989056","MEAN_MOTION":15.05632043,"ECCENTRICITY":0.00024659,"INCLINATION":97.6014,"RA_OF_ASC_NODE":293.9507,"ARG_OF_PERICENTER":87.4876,"MEAN_ANOMALY":272.6633,"EPHEMERIS_TYPE":0,"CLASSIFICATION_TYPE":"U","NORAD_CAT_ID":64946,"ELEMENT_SET_NO":999,"REV_AT_EPOCH":3533,"BSTAR":0.00036344434,"MEAN_MOTION_DOT":5.185e-5,"MEAN_MOTION_DDOT":0}]
