YAOGAN-30 03C           
1 43030U 17075C   26068.70526132  .00004051  00000+0  30362-3 0  9994
2 43030  34.9942 156.2830 0002667 259.4663 100.5744 15.02171938452452
STARLINK-34753          
1 64946U 25158Q   26068.53260404  .00005185  00000+0  36344-3 0  9997
2 64946  97.6014 293.9507 0002465  87.4876 272.6633 15.05632043 35332
